[{"OBJECT_NAME":"FLOCK 4BE-7","OBJECT_ID":"2024-149P","EPOCH":"2026-03-09T18:10:07.432608","MEAN_MOTION":15.36285753,"ECCENTRICITY":0.00023454,"INCLINATION":97.3799,"RA_OF_ASC_NODE":151.2741,"ARG_OF_PERICENTER":229.8965,"MEAN_ANOMALY":130.2073,"EPHEMERIS_TYPE":0,"CLASSIFICATION_TYPE":"U","NORAD_CAT_ID":60481,"ELEMENT_SET_NO":999,"REV_AT_EPOCH":8696,"BSTAR":0.00050594522,"MEAN_MOTION_DOT":0.00017838,"MEAN_MOTION_DDOT":0},{"OBJECT_NAME":"KUIPER-00251","OBJECT_ID":"2025-301Z","EPOCH":"2026-03-09T22:54:15.151392","MEAN_MOTION":15.37641122,"ECCENTRICITY":0.00115658,"INCLINATION":51.8661,"RA_OF_ASC_NODE":64.2119,"ARG_OF_PERICENTER":47.4159,"MEAN_ANOMALY":312.7801,"EPHEMERIS_TYPE":0,"CLASSIFICATION_TYPE":"U","NORAD_CAT_ID":67156,"ELEMENT_SET_NO":999,"REV_AT_EPOCH":1396,"BSTAR":0.00094782211,"MEAN_MOTION_DOT":0.00035417,"MEAN_MOTION_DDOT":0}]
